{
  "type": "FeatureCollection",
  "features": [
    {
      "type": "Feature",
      "properties": {
        "norad_id": 67000,
        "name": "2025-292H",
        "group": "last-30-days",
        "lat": 39.95720646115924,
        "lon": 54.01197896257105,
        "alt_km": 554.384909514054,
        "timestamp": "2025-12-13T22:39:28.447326+00:00",
        "meta_object_name": "2025-292H",
        "meta_object_id": "2025-292H",
        "meta_epoch": "2025-12-11T21:00:30.464640",
        "meta_mean_motion": 15.04864273,
        "meta_eccentricity": 0.0014339,
        "meta_inclination": 97.6576,
        "meta_ra_of_asc_node": 58.4335,
        "meta_arg_of_pericenter": 283.4517,
        "meta_mean_anomaly": 76.5111,
        "meta_ephemeris_type": 0,
        "meta_classification_type": "U",
        "meta_norad_cat_id": 67000,
        "meta_element_set_no": 999,
        "meta_rev_at_epoch": 13,
        "meta_bstar": 0.00023206,
        "meta_mean_motion_dot": 3.225e-05,
        "meta_mean_motion_ddot": 0,
        "tle_line1": "1 67000U 25292H   25345.87535260  .00003225  00000+0  23206-3 0  9995",
        "tle_line2": "2 67000  97.6576  58.4335 0014339 283.4517  76.5111 15.04864273   138"
      },
      "geometry": {
        "type": "Point",
        "coordinates": [
          54.01197896257105,
          39.95720646115924
        ]
      }
    },
    {
      "type": "Feature",
      "properties": {
        "norad_id": 67001,
        "name": "2025-292J",
        "group": "last-30-days",
        "lat": 32.305498149176465,
        "lon": 55.60375170672011,
        "alt_km": 557.8600131794719,
        "timestamp": "2025-12-13T22:39:28.447335+00:00",
        "meta_object_name": "2025-292J",
        "meta_object_id": "2025-292J",
        "meta_epoch": "2025-12-13T03:21:22.436928",
        "meta_mean_motion": 15.04307819,
        "meta_eccentricity": 0.00143728,
        "meta_inclination": 97.6569,
        "meta_ra_of_asc_node": 59.687,
        "meta_arg_of_pericenter": 267.5274,
        "meta_mean_anomaly": 92.4307,
        "meta_ephemeris_type": 0,
        "meta_classification_type": "U",
        "meta_norad_cat_id": 67001,
        "meta_element_set_no": 999,
        "meta_rev_at_epoch": 45,
        "meta_bstar": 0.00065481897,
        "meta_mean_motion_dot": 9.086e-05,
        "meta_mean_motion_ddot": 0,
        "tle_line1": "1 67001U 25292J   25347.13984302  .00009086  00000+0  65482-3 0  9995",
        "tle_line2": "2 67001  97.6569  59.6870 0014372 267.5274  92.4307 15.04307819   455"
      },
      "geometry": {
        "type": "Point",
        "coordinates": [
          55.60375170672011,
          32.305498149176465
        ]
      }
    },
    {
      "type": "Feature",
      "properties": {
        "norad_id": 67002,
        "name": "ZK-1A R/B",
        "group": "last-30-days",
        "lat": -13.31637593876143,
        "lon": 62.660621074105116,
        "alt_km": 263.02029525427406,
        "timestamp": "2025-12-13T22:39:28.447346+00:00",
        "meta_object_name": "ZK-1A R/B",
        "meta_object_id": "2025-292K",
        "meta_epoch": "2025-12-13T07:16:06.651264",
        "meta_mean_motion": 15.54771702,
        "meta_eccentricity": 0.02197312,
        "meta_inclination": 97.7239,
        "meta_ra_of_asc_node": 60.127,
        "meta_arg_of_pericenter": 3.9286,
        "meta_mean_anomaly": 356.3626,
        "meta_ephemeris_type": 0,
        "meta_classification_type": "U",
        "meta_norad_cat_id": 67002,
        "meta_element_set_no": 999,
        "meta_rev_at_epoch": 48,
        "meta_bstar": 0.0010858711,
        "meta_mean_motion_dot": 0.00220346,
        "meta_mean_motion_ddot": 1.4650739e-05,
        "tle_line1": "1 67002U 25292K   25347.30285476  .00220346  14651-4  10859-2 0  9994",
        "tle_line2": "2 67002  97.7239  60.1270 0219731   3.9286 356.3626 15.54771702   483"
      },
      "geometry": {
        "type": "Point",
        "coordinates": [
          62.660621074105116,
          -13.31637593876143
        ]
      }
    },
    {
      "type": "Feature",
      "properties": {
        "norad_id": 67059,
        "name": "HULIANWANG DIGUI 16A",
        "group": "last-30-days",
        "lat": -47.05260548003931,
        "lon": -108.42442706078394,
        "alt_km": 800.1136401828207,
        "timestamp": "2025-12-13T22:39:28.447356+00:00",
        "meta_object_name": "HULIANWANG DIGUI 16A",
        "meta_object_id": "2025-295A",
        "meta_epoch": "2025-12-12T05:06:27.347328",
        "meta_mean_motion": 14.25879966,
        "meta_eccentricity": 0.00136284,
        "meta_inclination": 50.0035,
        "meta_ra_of_asc_node": 14.4753,
        "meta_arg_of_pericenter": 247.7813,
        "meta_mean_anomaly": 112.1656,
        "meta_ephemeris_type": 0,
        "meta_classification_type": "U",
        "meta_norad_cat_id": 67059,
        "meta_element_set_no": 999,
        "meta_rev_at_epoch": 4,
        "meta_bstar": 3.434713e-06,
        "meta_mean_motion_dot": -1.52e-06,
        "meta_mean_motion_ddot": 0,
        "tle_line1": "1 67059U 25295A   25346.21281652 -.00000152  00000+0  34347-5 0  9991",
        "tle_line2": "2 67059  50.0035  14.4753 0013628 247.7813 112.1656 14.25879966    41"
      },
      "geometry": {
        "type": "Point",
        "coordinates": [
          -108.42442706078394,
          -47.05260548003931
        ]
      }
    },
    {
      "type": "Feature",
      "properties": {
        "norad_id": 67060,
        "name": "HULIANWANG DIGUI 16B",
        "group": "last-30-days",
        "lat": -47.37784745999995,
        "lon": -107.00719327741788,
        "alt_km": 799.8079718231902,
        "timestamp": "2025-12-13T22:39:28.447366+00:00",
        "meta_object_name": "HULIANWANG DIGUI 16B",
        "meta_object_id": "2025-295B",
        "meta_epoch": "2025-12-12T05:06:25.468992",
        "meta_mean_motion": 14.26022254,
        "meta_eccentricity": 0.0013423,
        "meta_inclination": 50.0012,
        "meta_ra_of_asc_node": 14.4776,
        "meta_arg_of_pericenter": 244.6732,
        "meta_mean_anomaly": 115.2792,
        "meta_ephemeris_type": 0,
        "meta_classification_type": "U",
        "meta_norad_cat_id": 67060,
        "meta_element_set_no": 999,
        "meta_rev_at_epoch": 4,
        "meta_bstar": 4.398892e-06,
        "meta_mean_motion_dot": -1.5e-06,
        "meta_mean_motion_ddot": 0,
        "tle_line1": "1 67060U 25295B   25346.21279478 -.00000150  00000+0  43989-5 0  9996",
        "tle_line2": "2 67060  50.0012  14.4776 0013423 244.6732 115.2792 14.26022254    48"
      },
      "geometry": {
        "type": "Point",
        "coordinates": [
          -107.00719327741788,
          -47.37784745999995
        ]
      }
    },
    {
      "type": "Feature",
      "properties": {
        "norad_id": 67062,
        "name": "HULIANWANG DIGUI 16D",
        "group": "last-30-days",
        "lat": -47.18555220046379,
        "lon": -107.87037065695516,
        "alt_km": 800.8275555013861,
        "timestamp": "2025-12-13T22:39:28.447378+00:00",
        "meta_object_name": "HULIANWANG DIGUI 16D",
        "meta_object_id": "2025-295D",
        "meta_epoch": "2025-12-12T05:06:24.477120",
        "meta_mean_motion": 14.25916921,
        "meta_eccentricity": 0.00124974,
        "meta_inclination": 50.0052,
        "meta_ra_of_asc_node": 14.4731,
        "meta_arg_of_pericenter": 251.2247,
        "meta_mean_anomaly": 108.7311,
        "meta_ephemeris_type": 0,
        "meta_classification_type": "U",
        "meta_norad_cat_id": 67062,
        "meta_element_set_no": 999,
        "meta_rev_at_epoch": 4,
        "meta_bstar": 3.753899e-06,
        "meta_mean_motion_dot": -1.51e-06,
        "meta_mean_motion_ddot": 0,
        "tle_line1": "1 67062U 25295D   25346.21278330 -.00000151  00000+0  37539-5 0  9999",
        "tle_line2": "2 67062  50.0052  14.4731 0012497 251.2247 108.7311 14.25916921    46"
      },
      "geometry": {
        "type": "Point",
        "coordinates": [
          -107.87037065695516,
          -47.18555220046379
        ]
      }
    },
    {
      "type": "Feature",
      "properties": {
        "norad_id": 67064,
        "name": "HULIANWANG DIGUI 16F",
        "group": "last-30-days",
        "lat": -48.93961422964241,
        "lon": -98.34373721959781,
        "alt_km": 795.7071057590601,
        "timestamp": "2025-12-13T22:39:28.447390+00:00",
        "meta_object_name": "HULIANWANG DIGUI 16F",
        "meta_object_id": "2025-295F",
        "meta_epoch": "2025-12-12T05:06:22.414752",
        "meta_mean_motion": 14.26957674,
        "meta_eccentricity": 0.00149026,
        "meta_inclination": 50.0027,
        "meta_ra_of_asc_node": 14.4596,
        "meta_arg_of_pericenter": 247.8107,
        "meta_mean_anomaly": 112.1227,
        "meta_ephemeris_type": 0,
        "meta_classification_type": "U",
        "meta_norad_cat_id": 67064,
        "meta_element_set_no": 999,
        "meta_rev_at_epoch": 4,
        "meta_bstar": 2.6251967e-05,
        "meta_mean_motion_dot": -9.6e-07,
        "meta_mean_motion_ddot": 0,
        "tle_line1": "1 67064U 25295F   25346.21275943 -.00000096  00000+0  26252-4 0  9995",
        "tle_line2": "2 67064  50.0027  14.4596 0014902 247.8107 112.1227 14.26957674    44"
      },
      "geometry": {
        "type": "Point",
        "coordinates": [
          -98.34373721959781,
          -48.93961422964241
        ]
      }
    }
  ]
}